satname,norad_id,inclination_deg,eccentricity,mean_motion_rev_per_day,perigee_km,apogee_km,l1,l2
STARLINK-1316,45415,53.1545,0.0006684,15.36975667,450.49120001453593,459.6258157694856,1 45415U 20019BH  26143.68165265  .00034396  00000+0  94309-3 0  9998,2 45415  53.1545 139.1175 0006684  22.6739 337.4558 15.36975667341507
STARLINK-1286,45417,53.0457,0.0001318,15.62260759,380.2374141696464,382.01915649885996,1 45417U 20019BK  26143.91668980  .00073424  00000+0  81596-3 0  9997,2 45417  53.0457 127.4145 0001318 113.9191 310.8735 15.62260759  5936
STARLINK-1308,45419,53.0462,0.0008432,15.63973331,370.4978085161556,381.8883107287029,1 45419U 20019BM  26143.82131483  .00073811  00000+0  76591-3 0  9991,2 45419  53.0462 147.4858 0008432 358.4379   1.6607 15.63973331341388
STARLINK-1329,45531,53.0421,0.000508,15.71001427,352.612753777501,359.4546712213996,1 45531U 20025A   26143.81708943  .00051036  00000+0  40113-3 0  9999,2 45531  53.0421  72.0171 0005080  85.9594 274.2004 15.71001427337220
STARLINK-1338,45532,53.0449,0.0004613,15.66128302,366.8828140443393,373.10864129888887,1 45532U 20025B   26143.53789191  .00039394  00000+0  37974-3 0  9997,2 45532  53.0449  79.4668 0004613  59.8828 300.2643 15.66128302337094
STARLINK-1350,45535,53.0721,0.0001685,15.37867168,451.2665037345623,453.5684005849407,1 45535U 20025E   26143.69735145  .00008683  00000+0  23996-3 0  9993,2 45535  53.0721  40.3767 0001685  75.6782 284.4407 15.37867168337693
STARLINK-1362,45538,53.1571,0.0003331,15.35389205,457.4869880693259,462.04239817728376,1 45538U 20025H   26143.64575443 -.00118611  00000+0 -34434-2 0  9997,2 45538  53.1571 111.5083 0003331  94.0227 266.1157 15.35389205336676
STARLINK-1368,45540,53.1582,0.0004899,15.35758797,455.3182366195824,462.01693775410877,1 45540U 20025K   26143.33404691  .00035535  00000+0  10129-2 0  9998,2 45540  53.1582 113.3407 0004899  67.7333 292.4189 15.35758797336613
STARLINK-1371,45542,53.0447,0.0006564,15.59154775,385.6593665871442,394.5447107971395,1 45542U 20025M   26143.83145084  .00072409  00000+0  90587-3 0  9991,2 45542  53.0447  87.0084 0006564  66.9299 293.2404 15.59154775337011
STARLINK-1372,45543,53.1576,0.0004382,15.36292655,454.08845299539826,460.07884037015174,1 45543U 20025N   26143.62316174  .00034373  00000+0  96373-3 0  9996,2 45543  53.1576 111.5405 0004382  58.0847 302.0582 15.36292655335764
STARLINK-1373,45544,53.0448,0.0004355,15.67869931,362.06083760036563,367.934107726056,1 45544U 20025P   26143.82924395  .00036060  00000+0  32462-3 0  9993,2 45544  53.0448  83.4759 0004355  33.0795 327.0492 15.67869931337069
STARLINK-1327,45555,53.0419,0.0005176,15.65533425,368.2113542736852,375.19879078716895,1 45555U 20025AA  26143.78414138  .00036999  00000+0  36562-3 0  9995,2 45555  53.0419  60.5943 0005176  42.8226 317.3191 15.65533425337375
STARLINK-1356,45564,53.0463,0.000372,15.55669005,397.6870667940075,402.73015592886077,1 45564U 20025AK  26143.11426057  .00063396  00000+0  90576-3 0  9991,2 45564  53.0463  76.4309 0003720  50.6280 309.5059 15.55669005337094
STARLINK-1357,45565,53.0453,0.000736,15.67500657,361.0927427343886,371.02019552094407,1 45565U 20025AL  26143.85909211  .00044847  00000+0  40776-3 0  9998,2 45565  53.0453  30.3388 0007360  78.6455 281.5387 15.67500657337811
STARLINK-1361,45567,53.0436,0.0001641,15.59508929,387.9668189605827,390.18781870002204,1 45567U 20025AN  26143.81389980  .00069942  00000+0  86450-3 0  9993,2 45567  53.0436  71.3075 0001641  54.8639 305.2526 15.59508929337234
STARLINK-1363,45568,53.0286,0.0005713,16.08983572,245.84664355402037,253.41953365726204,1 45568U 20025AP  26143.71882172  .00664348  24105-3  73518-3 0  9992,2 45568  53.0286  15.9304 0005713 247.2658 112.7771 16.08983572337981
STARLINK-1366,45569,53.0327,0.0003524,16.01392049,268.2198767953114,272.90588046977064,1 45569U 20025AQ  26143.86497241  .00327866  57368-4  58093-3 0  9998,2 45569  53.0327  17.5289 0003524 249.5631 110.5021 16.01392049337971
STARLINK-1376,45570,53.1559,0.0005538,15.36652459,452.2318822235957,459.8013907913919,1 45570U 20025AR  26143.53838907  .00034881  00000+0  96638-3 0  9997,2 45570  53.1559  88.3757 0005538  59.2154 300.9394 15.36652459336989
STARLINK-1320,45572,53.0447,0.0004501,15.82138595,321.37708866291723,327.4107069771335,1 45572U 20025AT  26143.79666979  .00100057  00000+0  47562-3 0  9996,2 45572  53.0447 331.4379 0004501 265.0649  94.9859 15.82138595338645
STARLINK-1321,45573,53.0424,0.0005122,15.60306416,383.30627924626333,390.2362512731952,1 45573U 20025AU  26143.19205659  .00062727  00000+0  75311-3 0  9999,2 45573  53.0424  58.3407 0005122  72.4400 287.7172 15.60306416337052
STARLINK-1331,45578,53.0467,0.000588,15.60333489,382.71529403741624,390.67073413398066,1 45578U 20025AZ  26143.85427076  .00055438  00000+0  66611-3 0  9990,2 45578  53.0467  61.9894 0005880  56.2081 303.9491 15.60333489337370
STARLINK-1333,45580,53.156,0.0003411,15.33712114,462.41443823205736,467.08265475187363,1 45580U 20025BB  26143.88188600  .00038555  00000+0  11714-2 0  9997,2 45580  53.1560  87.9561 0003411  82.7808 277.3581 15.33712114337028
STARLINK-1335,45581,53.1541,0.0004568,15.35151733,457.3459675011045,463.59371871296844,1 45581U 20025BC  26143.14572590  .00040125  00000+0  11640-2 0  9996,2 45581  53.1541  88.2955 0004568  72.8270 287.3232 15.35151733336946
STARLINK-1337,45582,53.0474,0.0007083,15.71970565,348.4977795522773,358.0334845208208,1 45582U 20025BD  26143.82360250  .00054438  00000+0  41008-3 0  9994,2 45582  53.0474  52.7492 0007083  64.2715 295.9033 15.71970565337483
STARLINK-1347,45586,53.0402,0.0004596,15.66679115,365.3132479418673,371.51467758683975,1 45586U 20025BH  26143.82419921  .00043495  00000+0  40936-3 0  9998,2 45586  53.0402  22.6307 0004596  92.3388 267.8153 15.66679115337902
STARLINK-1364,45589,53.0437,0.000173,15.63448394,376.53608510602044,378.87360638464725,1 45589U 20025BL  26143.91668980  .01240203  00000+0  11997-1 0  9992,2 45589  53.0437  58.9242 0001730  85.2394   5.4405 15.63448394  5940
STARLINK-1365,45590,53.0469,0.0005142,15.563663,394.69948551929974,401.66825390171016,1 45590U 20025BM  26143.85950723  .00064923  00000+0  90345-3 0  9994,2 45590  53.0469  92.2068 0005142  39.8682 320.2705 15.56366300336957
STARLINK-1443,45660,53.1331,0.000446,15.31017511,469.71970829612565,475.8307219920325,1 45660U 20035D   26143.52490657  .00014827  00000+0  49895-3 0  9994,2 45660  53.1331  78.0839 0004460  53.9033 306.2380 15.31017511330206
STARLINK-1446,45663,53.0235,0.0004173,15.46501818,424.12907798143715,429.8086193227218,1 45663U 20035G   26143.86530839  .00018345  00000+0  37137-3 0  9996,2 45663  53.0235   1.3138 0004173 126.4280 233.7111 15.46501818331293
STARLINK-1448,45665,53.0449,0.0007094,15.66119942,365.2325997610196,374.80688454678784,1 45665U 20035J   26143.85613437  .00043677  00000+0  42008-3 0  9992,2 45665  53.0449  46.4835 0007094  54.8306 305.3372 15.66119942330653
STARLINK-1451,45668,53.0509,0.0002953,15.13401967,523.7955772553623,527.8730627169462,1 45668U 20035M   26143.57768632  .00016124  00000+0  90736-3 0  9990,2 45668  53.0509  86.9895 0002953  67.8218 292.3087 15.13401967330070
STARLINK-1452,45669,53.0263,7.06e-05,15.55853997,399.19278779758133,400.14981432969125,1 45669U 20035N   26143.83393764  .00059703  00000+0  84814-3 0  9990,2 45669  53.0263  20.6516 0000706 214.7948 145.3016 15.55853997331025
STARLINK-1453,45670,53.0417,0.0002546,15.66568276,367.01443076783653,370.4499365561578,1 45670U 20035P   26143.82750639  .00049799  00000+0  46981-3 0  9996,2 45670  53.0417   6.9621 0002546 141.8918 218.2277 15.66568276331106
STARLINK-1454,45671,53.0441,0.0003068,15.64820087,371.6847553251455,375.82771701485945,1 45671U 20035Q   26143.46327694  .00042598  00000+0  43206-3 0  9995,2 45671  53.0441  49.4771 0003068  42.7434 317.3818 15.64820087330575
STARLINK-1456,45673,53.0423,0.0006265,15.63197392,374.1950270174448,382.66100298124,1 45673U 20035S   26143.86671905  .00096097  00000+0  10242-2 0  9994,2 45673  53.0423  41.9510 0006265  96.6344 263.5383 15.63197392330737
STARLINK-1458,45675,53.0475,0.0005159,15.53965784,401.6611316174849,408.6601381171404,1 45675U 20035U   26143.48123476  .00061625  00000+0  93723-3 0  9994,2 45675  53.0475  57.4151 0005159  50.9598 309.1870 15.53965784330447
STARLINK-1460,45676,53.1584,0.0002523,15.33519328,463.59543086202757,467.04864029138025,1 45676U 20035V   26143.79064786  .00031347  00000+0  96134-3 0  9994,2 45676  53.1584  75.5520 0002523  94.1175 266.0116 15.33519328330221
STARLINK-1392,45677,53.1534,0.0003478,15.36670646,453.58581355752995,458.3396133181968,1 45677U 20035W   26143.51491799  .00036244  00000+0  10032-2 0  9996,2 45677  53.1534  75.8317 0003478  94.3927 265.7474 15.36670646330239
STARLINK-1394,45679,53.0421,0.0007137,15.6284167,374.63033553724745,384.27611982824146,1 45679U 20035Y   26143.86647310  .00081627  00000+0  88440-3 0  9992,2 45679  53.0421  32.1978 0007137 103.9659 256.2148 15.62841670330867
STARLINK-1402,45685,53.042,0.000661,15.55985437,394.80971856753786,403.7694765294982,1 45685U 20035AE  26143.86746454  .00062311  00000+0  87965-3 0  9998,2 45685  53.0420  22.2202 0006610 123.6695 236.4947 15.55985437331014
STARLINK-1404,45686,53.1576,0.0004938,15.42587486,435.109960519625,441.84204752239657,1 45686U 20035AF  26143.76331668  .00041216  00000+0  93771-3 0  9998,2 45686  53.1576  56.9554 0004938 106.8105 253.3444 15.42587486330525
STARLINK-1413,45689,53.1579,0.0003101,15.33516616,463.2079447917922,467.4522630896572,1 45689U 20035AJ  26143.82925142  .00032896  00000+0  10081-2 0  9990,2 45689  53.1579  60.0125 0003101 107.5724 252.5617 15.33516616330404
STARLINK-1417,45693,53.0511,0.0006201,15.1596057,513.7875574905747,522.3402258364149,1 45693U 20035AN  26143.83455578  .00018453  00000+0  96358-3 0  9992,2 45693  53.0511  72.7607 0006201  87.7864 272.3839 15.15960570330281
